{"type": "FeatureCollection", "features": [{"type": "Feature", "properties": {"norad_id": 22490, "name": "SCD 1", "group": "resource", "lat": 0.8869772907076354, "lon": 34.73637077823646, "alt_km": 745.0376491904772, "timestamp": "2025-12-22T18:58:53.077026+00:00", "meta": {"OBJECT_NAME": "SCD 1", "OBJECT_ID": "1993-009B", "EPOCH": "2025-12-21T17:33:16.575840", "MEAN_MOTION": 14.46004662, "ECCENTRICITY": 0.00421475, "INCLINATION": 24.9681, "RA_OF_ASC_NODE": 223.1799, "ARG_OF_PERICENTER": 60.1108, "MEAN_ANOMALY": 350.9705, "EPHEMERIS_TYPE": 0, "CLASSIFICATION_TYPE": "U", "NORAD_CAT_ID": 22490, "ELEMENT_SET_NO": 999, "REV_AT_EPOCH": 73540, "BSTAR": 6.8233163e-05, "MEAN_MOTION_DOT": 4.34e-06, "MEAN_MOTION_DDOT": 0}, "tle": {"line1": "1 22490U 93009B   25355.73144185  .00000434  00000+0  68233-4 0  9997", "line2": "2 22490  24.9681 223.1799 0042147  60.1108 350.9705 14.46004662735407"}}, "geometry": {"type": "Point", "coordinates": [34.73637077823646, 0.8869772907076354]}}, {"type": "Feature", "properties": {"norad_id": 25397, "name": "TECHSAT 1B (GO-32)", "group": "resource", "lat": -19.967037569179347, "lon": 156.9369611772078, "alt_km": 816.8880269539841, "timestamp": "2025-12-22T18:58:53.077054+00:00", "meta": {"OBJECT_NAME": "TECHSAT 1B (GO-32)", "OBJECT_ID": "1998-043D", "EPOCH": "2025-12-21T20:07:42.088512", "MEAN_MOTION": 14.24379411, "ECCENTRICITY": 0.0001773, "INCLINATION": 98.993, "RA_OF_ASC_NODE": 339.2611, "ARG_OF_PERICENTER": 42.713, "MEAN_ANOMALY": 317.4186, "EPHEMERIS_TYPE": 0, "CLASSIFICATION_TYPE": "U", "NORAD_CAT_ID": 25397, "ELEMENT_SET_NO": 999, "REV_AT_EPOCH": 42608, "BSTAR": 4.299504e-05, "MEAN_MOTION_DOT": 5.3e-07, "MEAN_MOTION_DDOT": 0}, "tle": {"line1": "1 25397U 98043D   25355.83868158  .00000053  00000+0  42995-4 0  9997", "line2": "2 25397  98.9930 339.2611 0001773  42.7130 317.4186 14.24379411426082"}}, "geometry": {"type": "Point", "coordinates": [156.9369611772078, -19.967037569179347]}}, {"type": "Feature", "properties": {"norad_id": 25504, "name": "SCD 2", "group": "resource", "lat": -3.635801909185557, "lon": -92.23824115545065, "alt_km": 746.6784766109167, "timestamp": "2025-12-22T18:58:53.077070+00:00", "meta": {"OBJECT_NAME": "SCD 2", "OBJECT_ID": "1998-060A", "EPOCH": "2025-12-21T14:03:05.507424", "MEAN_MOTION": 14.45427795, "ECCENTRICITY": 0.0017009, "INCLINATION": 24.9948, "RA_OF_ASC_NODE": 87.3516, "ARG_OF_PERICENTER": 47.008, "MEAN_ANOMALY": 336.2832, "EPHEMERIS_TYPE": 0, "CLASSIFICATION_TYPE": "U", "NORAD_CAT_ID": 25504, "ELEMENT_SET_NO": 999, "REV_AT_EPOCH": 43460, "BSTAR": 5.578e-05, "MEAN_MOTION_DOT": 3.81e-06, "MEAN_MOTION_DDOT": 0}, "tle": {"line1": "1 25504U 98060A   25355.58548041  .00000381  00000+0  55780-4 0  9994", "line2": "2 25504  24.9948  87.3516 0017009  47.0080 336.2832 14.45427795434602"}}, "geometry": {"type": "Point", "coordinates": [-92.23824115545065, -3.635801909185557]}}, {"type": "Feature", "properties": {"norad_id": 25757, "name": "DLR-TUBSAT", "group": "resource", "lat": -10.774003945885605, "lon": -16.72395405694616, "alt_km": 732.1953484086471, "timestamp": "2025-12-22T18:58:53.077084+00:00", "meta": {"OBJECT_NAME": "DLR-TUBSAT", "OBJECT_ID": "1999-029B", "EPOCH": "2025-12-17T13:22:10.787520", "MEAN_MOTION": 14.52359578, "ECCENTRICITY": 0.00141996, "INCLINATION": 98.6566, "RA_OF_ASC_NODE": 336.2196, "ARG_OF_PERICENTER": 177.8976, "MEAN_ANOMALY": 182.2281, "EPHEMERIS_TYPE": 0, "CLASSIFICATION_TYPE": "U", "NORAD_CAT_ID": 25757, "ELEMENT_SET_NO": 999, "REV_AT_EPOCH": 40688, "BSTAR": 3.7650132e-05, "MEAN_MOTION_DOT": 1.05e-06, "MEAN_MOTION_DDOT": 0}, "tle": {"line1": "1 25757U 99029B   25351.55706930  .00000105  00000+0  37650-4 0  9996", "line2": "2 25757  98.6566 336.2196 0014199 177.8976 182.2281 14.52359578406886"}}, "geometry": {"type": "Point", "coordinates": [-16.72395405694616, -10.774003945885605]}}, {"type": "Feature", "properties": {"norad_id": 25994, "name": "TERRA", "group": "resource", "lat": 0.5659346948983006, "lon": 48.02645887836004, "alt_km": 692.4289340225123, "timestamp": "2025-12-22T18:58:53.077096+00:00", "meta": {"OBJECT_NAME": "TERRA", "OBJECT_ID": "1999-068A", "EPOCH": "2025-12-22T06:08:35.869344", "MEAN_MOTION": 14.60912266, "ECCENTRICITY": 0.00034918, "INCLINATION": 97.9734, "RA_OF_ASC_NODE": 47.5906, "ARG_OF_PERICENTER": 75.4737, "MEAN_ANOMALY": 353.6325, "EPHEMERIS_TYPE": 0, "CLASSIFICATION_TYPE": "U", "NORAD_CAT_ID": 25994, "ELEMENT_SET_NO": 999, "REV_AT_EPOCH": 38377, "BSTAR": 0.00010647897, "MEAN_MOTION_DOT": 4.77e-06, "MEAN_MOTION_DDOT": 0}, "tle": {"line1": "1 25994U 99068A   25356.25597071  .00000477  00000+0  10648-3 0  9997", "line2": "2 25994  97.9734  47.5906 0003491  75.4737 353.6325 14.60912266383773"}}, "geometry": {"type": "Point", "coordinates": [48.02645887836004, 0.5659346948983006]}}, {"type": "Feature", "properties": {"norad_id": 27004, "name": "MAROC-TUBSAT", "group": "resource", "lat": -43.97148364297251, "lon": 175.00141890081363, "alt_km": 1003.1790460101956, "timestamp": "2025-12-22T18:58:53.077108+00:00", "meta": {"OBJECT_NAME": "MAROC-TUBSAT", "OBJECT_ID": "2001-056D", "EPOCH": "2025-12-22T02:13:31.700928", "MEAN_MOTION": 13.70253379, "ECCENTRICITY": 0.00192075, "INCLINATION": 99.7916, "RA_OF_ASC_NODE": 164.7016, "ARG_OF_PERICENTER": 235.2941, "MEAN_ANOMALY": 237.5857, "EPHEMERIS_TYPE": 0, "CLASSIFICATION_TYPE": "U", "NORAD_CAT_ID": 27004, "ELEMENT_SET_NO": 999, "REV_AT_EPOCH": 20193, "BSTAR": 2.4567548e-05, "MEAN_MOTION_DOT": -2.5e-07, "MEAN_MOTION_DDOT": 0}, "tle": {"line1": "1 27004U 01056D   25356.09272802 -.00000025  00000+0  24568-4 0  9992", "line2": "2 27004  99.7916 164.7016 0019207 235.2941 237.5857 13.70253379201938"}}, "geometry": {"type": "Point", "coordinates": [175.00141890081363, -43.97148364297251]}}, {"type": "Feature", "properties": {"norad_id": 27424, "name": "AQUA", "group": "resource", "lat": -81.5424606159957, "lon": 53.924389107119666, "alt_km": 695.6003882809373, "timestamp": "2025-12-22T18:58:53.077119+00:00", "meta": {"OBJECT_NAME": "AQUA", "OBJECT_ID": "2002-022A", "EPOCH": "2025-12-21T22:23:22.229952", "MEAN_MOTION": 14.61820667, "ECCENTRICITY": 0.0001439, "INCLINATION": 98.405, "RA_OF_ASC_NODE": 316.9619, "ARG_OF_PERICENTER": 110.3776, "MEAN_ANOMALY": 326.1362, "EPHEMERIS_TYPE": 0, "CLASSIFICATION_TYPE": "U", "NORAD_CAT_ID": 27424, "ELEMENT_SET_NO": 999, "REV_AT_EPOCH": 25737, "BSTAR": 0.00018434, "MEAN_MOTION_DOT": 8.71e-06, "MEAN_MOTION_DDOT": 0}, "tle": {"line1": "1 27424U 02022A   25355.93289618  .00000871  00000+0  18434-3 0  9999", "line2": "2 27424  98.4050 316.9619 0001439 110.3776 326.1362 14.61820667257372"}}, "geometry": {"type": "Point", "coordinates": [53.924389107119666, -81.5424606159957]}}, {"type": "Feature", "properties": {"norad_id": 28051, "name": "IRS-P6 (RESOURCESAT-1)", "group": "resource", "lat": -74.04924013801501, "lon": 67.09868626626114, "alt_km": 810.2773372760466, "timestamp": "2025-12-22T18:58:53.077130+00:00", "meta": {"OBJECT_NAME": "IRS-P6 (RESOURCESAT-1)", "OBJECT_ID": "2003-046A", "EPOCH": "2025-12-22T06:34:22.995264", "MEAN_MOTION": 14.36078499, "ECCENTRICITY": 0.00647517, "INCLINATION": 98.2165, "RA_OF_ASC_NODE": 36.2389, "ARG_OF_PERICENTER": 152.18, "MEAN_ANOMALY": 339.6678, "EPHEMERIS_TYPE": 0, "CLASSIFICATION_TYPE": "U", "NORAD_CAT_ID": 28051, "ELEMENT_SET_NO": 999, "REV_AT_EPOCH": 15513, "BSTAR": 4.8513102e-05, "MEAN_MOTION_DOT": 1.04e-06, "MEAN_MOTION_DDOT": 0}, "tle": {"line1": "1 28051U 03046A   25356.27387726  .00000104  00000+0  48513-4 0  9991", "line2": "2 28051  98.2165  36.2389 0064751 152.1800 339.6678 14.36078499155138"}}, "geometry": {"type": "Point", "coordinates": [67.09868626626114, -74.04924013801501]}}, {"type": "Feature", "properties": {"norad_id": 28220, "name": "SHIYAN-1 (SY-1)", "group": "resource", "lat": -66.48439923617222, "lon": -139.66718862053222, "alt_km": 485.03835435550354, "timestamp": "2025-12-22T18:58:53.077141+00:00", "meta": {"OBJECT_NAME": "SHIYAN-1 (SY-1)", "OBJECT_ID": "2004-012A", "EPOCH": "2025-12-21T21:28:24.522528", "MEAN_MOTION": 15.28363795, "ECCENTRICITY": 0.00051617, "INCLINATION": 97.8924, "RA_OF_ASC_NODE": 57.9743, "ARG_OF_PERICENTER": 287.3834, "MEAN_ANOMALY": 72.684, "EPHEMERIS_TYPE": 0, "CLASSIFICATION_TYPE": "U", "NORAD_CAT_ID": 28220, "ELEMENT_SET_NO": 999, "REV_AT_EPOCH": 18396, "BSTAR": 0.00048309009, "MEAN_MOTION_DOT": 0.00013276, "MEAN_MOTION_DDOT": 0}, "tle": {"line1": "1 28220U 04012A   25355.89472827  .00013276  00000+0  48309-3 0  9993", "line2": "2 28220  97.8924  57.9743 0005161 287.3834  72.6840 15.28363795183961"}}, "geometry": {"type": "Point", "coordinates": [-139.66718862053222, -66.48439923617222]}}, {"type": "Feature", "properties": {"norad_id": 28376, "name": "AURA", "group": "resource", "lat": 8.993413084537652, "lon": -54.26222462540379, "alt_km": 691.6335230339346, "timestamp": "2025-12-22T18:58:53.077152+00:00", "meta": {"OBJECT_NAME": "AURA", "OBJECT_ID": "2004-026A", "EPOCH": "2025-12-22T04:08:47.214816", "MEAN_MOTION": 14.60967247, "ECCENTRICITY": 0.00013893, "INCLINATION": 98.3199, "RA_OF_ASC_NODE": 306.4438, "ARG_OF_PERICENTER": 92.216, "MEAN_ANOMALY": 267.9199, "EPHEMERIS_TYPE": 0, "CLASSIFICATION_TYPE": "U", "NORAD_CAT_ID": 28376, "ELEMENT_SET_NO": 999, "REV_AT_EPOCH": 14036, "BSTAR": 0.00020437487, "MEAN_MOTION_DOT": 9.54e-06, "MEAN_MOTION_DDOT": 0}, "tle": {"line1": "1 28376U 04026A   25356.17276869  .00000954  00000+0  20437-3 0  9991", "line2": "2 28376  98.3199 306.4438 0001389  92.2160 267.9199 14.60967247140369"}}, "geometry": {"type": "Point", "coordinates": [-54.26222462540379, 8.993413084537652]}}]}